NORAD_CAT_ID,OBJECT_NAME,OBJECT_TYPE,EPOCH,MEAN_MOTION,ECCENTRICITY,INCLINATION,RA_OF_ASC_NODE,ARG_OF_PERICENTER,MEAN_ANOMALY,BSTAR,MEAN_MOTION_DOT,MEAN_MOTION_DDOT,TLE_LINE0,TLE_LINE1,TLE_LINE2,SEMIMAJOR_AXIS,PERIOD,APOGEE,PERIGEE,DECAYED
51815.0,STARLINK-3604,PAYLOAD,2022-03-27 04:00:00,15.73161372,0.0001044,53.2177,357.4552,62.7063,199.8195,0.00066255,0.00093247,0.0,0 STARLINK-3604,1 51815U 22017AZ  22086.16667824  .00093247  00000-0  66255-3 0  9992,2 51815  53.2177 357.4552 0001044  62.7063 199.8195 15.73161372  5879,6728.005,91.535,350.5730000000001,349.168,0.0
51815.0,STARLINK-3604,PAYLOAD,2022-03-27 14:00:01,15.73251311,0.0001007,53.2176,355.391,79.0995,24.6038,-0.00027753,-0.00039471,0.0,0 STARLINK-3604,1 51815U 22017AZ  22086.58334491 -.00039471  00000-0 -27753-3 0  9990,2 51815  53.2176 355.3910 0001007  79.0995  24.6038 15.73251311  3701,6727.749,91.53,350.291,348.936,0.0
51815.0,STARLINK-3604,PAYLOAD,2022-03-27 20:00:01,15.73231329,0.0001246,53.218,354.1542,80.8816,359.5491,-0.00052537,-0.00073806,0.0,0 STARLINK-3604,1 51815U 22017AZ  22086.83334491 -.00073806  00000-0 -52537-3 0  9996,2 51815  53.2180 354.1542 0001246  80.8816 359.5491 15.73231329  5983,6727.806,91.531,350.509,348.833,0.0
51815.0,STARLINK-3604,PAYLOAD,2022-03-27 22:00:01,15.73200455,0.0001322,53.218,353.7424,77.1342,115.6065,-0.000204,-0.00029151,0.0,0 STARLINK-3604,1 51815U 22017AZ  22086.91668981 -.00029151  00000-0 -20400-3 0  9997,2 51815  53.2180 353.7424 0001322  77.1342 115.6065 15.73200455  3695,6727.894,91.533,350.648,348.869,0.0
51815.0,STARLINK-3604,PAYLOAD,2022-03-28 04:00:00,15.7318566,0.0001303,53.2181,352.5066,71.4966,97.8875,0.00047159,0.00066045,0.0,0 STARLINK-3604,1 51815U 22017AZ  22087.16667824  .00066045  00000-0  47159-3 0  9991,2 51815  53.2181 352.5066 0001303  71.4966  97.8875 15.73185660  6034,6727.936,91.534,350.67800000000005,348.9240000000001,0.0
51815.0,STARLINK-3604,PAYLOAD,2022-03-28 12:00:00,15.73189807,0.0001112,53.218,350.8553,78.2388,180.1036,0.00032259,0.00044875,0.0,0 STARLINK-3604,1 51815U 22017AZ  22087.50001157  .00044875  00000-0  32259-3 0  9992,2 51815  53.2180 350.8553 0001112  78.2388 180.1036 15.73189807  6083,6727.924,91.534,350.537,349.041,0.0
51815.0,STARLINK-3604,PAYLOAD,2022-03-28 14:00:01,15.73170942,0.000107,53.2178,350.4425,81.4127,289.2354,0.00069831,0.00098414,0.0,0 STARLINK-3604,1 51815U 22017AZ  22087.58335648  .00098414  00000-0  69831-3 0  9999,2 51815  53.2178 350.4425 0001070  81.4127 289.2354 15.73170942  3704,6727.978,91.535,350.56300000000016,349.12300000000016,0.0
51815.0,STARLINK-3604,PAYLOAD,2022-03-28 22:00:00,15.73253808,0.000117,53.2176,348.7946,76.5012,23.0074,-0.00083549,-0.0011653,0.0,0 STARLINK-3604,1 51815U 22017AZ  22087.91667824 -.00116530  00000-0 -83549-3 0  9994,2 51815  53.2176 348.7946 0001170  76.5012  23.0074 15.73253808  3682,6727.7419999999975,91.53,350.394,348.82,0.0
51815.0,STARLINK-3604,PAYLOAD,2022-03-29 04:00:00,15.73182968,0.0001214,53.2174,347.5586,71.5826,4.6598,-0.0003032,-0.00042923,0.0,0 STARLINK-3604,1 51815U 22017AZ  22088.16667824 -.00042923  00000-0 -30320-3 0  9995,2 51815  53.2174 347.5586 0001214  71.5826   4.6598 15.73182968  6197,6727.944,91.534,350.626,348.992,0.0
51815.0,STARLINK-3604,PAYLOAD,2022-03-29 14:00:01,15.73098825,0.0001197,53.2172,345.4944,86.1193,191.2325,0.00077426,0.00108987,0.0,0 STARLINK-3604,1 51815U 22017AZ  22088.58334491  .00108987  00000-0  77426-3 0  9991,2 51815  53.2172 345.4944 0001197  86.1193 191.2325 15.73098825  3724,6728.184,91.539,350.85400000000016,349.24300000000005,0.0
51815.0,STARLINK-3604,PAYLOAD,2022-03-29 22:00:00,15.73203036,0.0001174,53.2176,343.8466,79.8092,286.3987,-4.189899999999999e-05,-6.496e-05,0.0,0 STARLINK-3604,1 51815U 22017AZ  22088.91667824 -.00006496  00000-0 -41899-4 0  9997,2 51815  53.2176 343.8466 0001174  79.8092 286.3987 15.73203036  3701,6727.887,91.533,350.541,348.962,0.0
51815.0,STARLINK-3604,PAYLOAD,2022-03-30 12:00:00,15.73200212,9.4e-05,53.2175,340.9592,83.0752,348.7571,8.83e-06,6.2e-06,0.0,0 STARLINK-3604,1 51815U 22017AZ  22089.50001157  .00000620  00000-0  88300-5 0  9994,2 51815  53.2175 340.9592 0000940  83.0752 348.7571 15.73200212  6403,6727.895,91.533,350.392,349.12699999999984,0.0
51815.0,STARLINK-3604,PAYLOAD,2022-03-30 14:00:01,15.73204851,9.71e-05,53.2172,340.5463,85.0169,99.1137,-6.5244e-05,-9.767e-05,0.0,0 STARLINK-3604,1 51815U 22017AZ  22089.58335648 -.00009767  00000-0 -65244-4 0  9991,2 51815  53.2172 340.5463 0000971  85.0169  99.1137 15.73204851  3664,6727.880999999999,91.533,350.4,349.093,0.0
51815.0,STARLINK-3604,PAYLOAD,2022-03-30 22:00:00,15.73202348,0.0001094,53.2169,338.8988,78.4585,194.5351,0.00010256,0.00013799,0.0,0 STARLINK-3604,1 51815U 22017AZ  22089.91667824  .00013799  00000-0  10256-3 0  9992,2 51815  53.2169 338.8988 0001094  78.4585 194.5351 15.73202348  3721,6727.888000000001,91.533,350.49,349.017,0.0
51815.0,STARLINK-3604,PAYLOAD,2022-03-31 14:00:01,15.73145517,9.8e-05,53.2164,335.5981,91.4525,359.4294,0.00070281,0.00098951,0.0,0 STARLINK-3604,1 51815U 22017AZ  22090.58334491  .00098951  00000-0  70281-3 0  9995,2 51815  53.2164 335.5981 0000980  91.4525 359.4294 15.73145517  3693,6728.051,91.536,350.575,349.256,0.0
51815.0,STARLINK-3604,PAYLOAD,2022-03-31 20:00:01,15.73225066,0.0001024,53.2167,334.3623,85.6264,341.9314,0.00032945,0.00045918,0.0,0 STARLINK-3604,1 51815U 22017AZ  22090.83334491  .00045918  00000-0  32945-3 0  9993,2 51815  53.2167 334.3623 0001024  85.6264 341.9314 15.73225066  6613,6727.824000000001,91.532,350.37800000000016,349.0,0.0
51815.0,STARLINK-3604,PAYLOAD,2022-03-31 22:00:00,15.73228907,0.0001033,53.2166,333.9504,80.3142,99.4851,0.00040519,0.000567,0.0,0 STARLINK-3604,1 51815U 22017AZ  22090.91667824  .00056700  00000-0  40519-3 0  9998,2 51815  53.2166 333.9504 0001033  80.3142  99.4851 15.73228907  3684,6727.813,91.531,350.37300000000016,348.983,0.0
51815.0,STARLINK-3604,PAYLOAD,2022-04-01 12:00:00,15.73243575,9.55e-05,53.2164,331.0621,86.8066,158.7632,-0.00027481,-0.00039079,0.0,0 STARLINK-3604,1 51815U 22017AZ  22091.50001157 -.00039079  00000-0 -27481-3 0  9990,2 51815  53.2164 331.0621 0000955  86.8066 158.7632 15.73243575  6710,6727.771,91.531,350.278,348.99300000000005,0.0
51815.0,STARLINK-3604,PAYLOAD,2022-04-01 14:00:01,15.73223308,9.68e-05,53.2162,330.6494,89.8205,267.9994,-0.00010331,-0.00015106,0.0,0 STARLINK-3604,1 51815U 22017AZ  22091.58334491 -.00015106  00000-0 -10331-3 0  9999,2 51815  53.2162 330.6494 0000968  89.8205 267.9994 15.73223308  3705,6727.829000000002,91.532,350.345,349.042,0.0
51815.0,STARLINK-3604,PAYLOAD,2022-04-01 22:00:00,15.73232826,9.81e-05,53.2159,329.0019,77.4071,9.3803,-0.00068149,-0.00095316,0.0,0 STARLINK-3604,1 51815U 22017AZ  22091.91667824 -.00095316  00000-0 -68149-3 0  9996,2 51815  53.2159 329.0019 0000981  77.4071   9.3803 15.73232826  3673,6727.802,91.531,350.327,349.00699999999995,0.0
51815.0,STARLINK-3604,PAYLOAD,2022-04-02 20:00:01,15.73210748,0.0001276,53.2156,324.4653,86.8648,154.385,-0.00066406,-0.00092837,0.0,0 STARLINK-3604,1 51815U 22017AZ  22092.83334491 -.00092837  00000-0 -66406-3 0  9998,2 51815  53.2156 324.4653 0001276  86.8648 154.3850 15.73210748  6928,6727.865,91.533,350.588,348.871,0.0
51815.0,STARLINK-3604,PAYLOAD,2022-04-02 22:00:01,15.73189196,0.0001278,53.2156,324.0532,83.4371,270.1124,-0.00054481,-0.00076354,0.0,0 STARLINK-3604,1 51815U 22017AZ  22092.91668981 -.00076354  00000-0 -54481-3 0  9997,2 51815  53.2156 324.0532 0001278  83.4371 270.1124 15.73189196  3704,6727.926,91.534,350.651,348.931,0.0
51815.0,STARLINK-3604,PAYLOAD,2022-04-03 04:00:00,15.73115207,0.0001062,53.2153,322.8164,77.2764,252.8777,0.0005614,0.00078622,0.0,0 STARLINK-3604,1 51815U 22017AZ  22093.16667824  .00078622  00000-0  56140-3 0  9992,2 51815  53.2153 322.8164 0001062  77.2764 252.8777 15.73115207  6982,6728.137,91.538,350.716,349.287,0.0
51815.0,STARLINK-3604,PAYLOAD,2022-04-03 12:00:00,15.73099411,7.8e-05,53.2154,321.165,89.7106,329.296,0.002918,0.00428696,0.0,0 STARLINK-3604,1 51815U 22017AZ  22093.50001157  .00428696  00000-0  29180-2 0  9994,2 51815  53.2154 321.1650 0000780  89.7106 329.2960 15.73099411  7037,6728.182,91.539,350.57199999999995,349.522,0.0
51815.0,STARLINK-3604,PAYLOAD,2022-04-03 20:00:01,15.7344749,8.759999999999999e-05,53.2152,319.5167,77.0734,70.9762,-0.0020013,-0.00275383,0.0,0 STARLINK-3604,1 51815U 22017AZ  22093.83335648 -.00275383  00000-0 -20013-2 0  9996,2 51815  53.2152 319.5167 0000876  77.0734  70.9762 15.73447490  7081,6727.19,91.519,349.644,348.465,0.0
51815.0,STARLINK-3604,PAYLOAD,2022-04-03 22:00:00,15.73373941,0.0001062,53.2151,319.1048,74.7549,185.5356,-0.0014794,-0.00204784,0.0,0 STARLINK-3604,1 51815U 22017AZ  22093.91667824 -.00204784  00000-0 -14794-2 0  9995,2 51815  53.2151 319.1048 0001062  74.7549 185.5356 15.73373941  3694,6727.399,91.523,349.97900000000016,348.55,0.0
51815.0,STARLINK-3604,PAYLOAD,2022-04-04 04:00:00,15.73292797,0.0001289,53.2144,317.8672,79.5293,157.5584,-0.0011272,-0.00156527,0.0,0 STARLINK-3604,1 51815U 22017AZ  22094.16667824 -.00156527  00000-0 -11272-2 0  9992,2 51815  53.2144 317.8672 0001289  79.5293 157.5584 15.73292797  7138,6727.630999999999,91.528,350.36300000000006,348.62800000000016,0.0
51815.0,STARLINK-3604,PAYLOAD,2022-04-04 12:00:00,15.73135399,0.0001374,53.2146,316.2155,92.5477,233.5431,0.00011786,0.00015907,0.0,0 STARLINK-3604,1 51815U 22017AZ  22094.50001157  .00015907  00000-0  11786-3 0  9996,2 51815  53.2146 316.2155 0001374  92.5477 233.5431 15.73135399  7199,6728.079000000002,91.537,350.869,349.02,0.0
51815.0,STARLINK-3604,PAYLOAD,2022-04-04 14:00:01,15.73123349,0.0001394,53.2148,315.8031,93.6398,344.6671,0.00038909,0.0005416,0.0,0 STARLINK-3604,1 51815U 22017AZ  22094.58334491  .00054160  00000-0  38909-3 0  9994,2 51815  53.2148 315.8031 0001394  93.6398 344.6671 15.73123349  3700,6728.114000000001,91.538,350.917,349.041,0.0
